{
  "type": "FeatureCollection",
  "features": [
    {
      "type": "Feature",
      "properties": {
        "Name": "Sample Reservoir Boundary"
      },
      "geometry": {
        "type": "Polygon",
        "coordinates": [
          [
            [
              424500,
              3359500
            ],
            [
              437500,
              3359500
            ],
            [
              437500,
              3367100
            ],
            [
              424500,
              3367100
            ],
            [
              424500,
              3359500
            ]
          ]
        ]
      }
    }
  ]
}
